STARLINK-36881          
1 67962U 26038B   26062.58336806 -.00962400  32666-3 -13583-2 0  9995
2 67962  97.2785  72.3525 0001016  79.1203 149.7469 16.05758905  2215
STARLINK-36357          
1 67963U 26038C   26062.58336806 -.00964718  32899-3 -13435-2 0  9994
2 67963  97.2783  72.3541 0000961  96.5876 135.4917 16.05978027  2218
STARLINK-36349          
1 67964U 26038D   26062.58336806 -.00961767  32676-3 -13470-2 0  9998
2 67964  97.2782  72.3531 0000973  92.0409 138.4401 16.05885238  2215
STARLINK-36806          
1 67965U 26038E   26062.58336806 -.00955941  32396-3 -13214-2 0  9991
2 67965  97.2780  72.3548 0001055  79.7714 154.1540 16.06098620  2216
STARLINK-36820          
1 67966U 26038F   26062.58336806 -.00959198  32644-3 -13171-2 0  9998
2 67966  97.2780  72.3555 0000966 104.8013 130.6831 16.06207771  2218
STARLINK-36819          
1 67967U 26038G   26062.58336806 -.00963891  32989-3 -13141-2 0  9993
2 67967  97.2780  72.3561 0001081  74.5892 162.5619 16.06325312  2213
STARLINK-36812          
1 67968U 26038H   26062.58336806 -.00964643  33075-3 -13074-2 0  9992
2 67968  97.2778  72.3565 0001063  74.3038 164.3129 16.06421246  2214
STARLINK-36709          
1 67969U 26038J   26062.58336806 -.00966972  33320-3 -12917-2 0  9998
2 67969  97.2778  72.3581 0000957 100.0960 141.9268 16.06656794  2218
STARLINK-36319          
1 67970U 26038K   26062.58336806 -.00972946  33654-3 -13089-2 0  9999
2 67970  97.2778  72.3572 0000974  96.9983 143.3071 16.06542872  2182
STARLINK-36710          
1 67971U 26038L   26062.58336806 -.00969749  33559-3 -12836-2 0  9990
2 67971  97.2776  72.3590 0000990  98.9762 145.0984 16.06804800  2214
STARLINK-36894          
1 67972U 26038M   26062.58336806 -.00971949  33751-3 -12770-2 0  9997
2 67972  97.2774  72.3598 0000990  95.8471 149.9360 16.06925626  2215
STARLINK-36900          
1 67973U 26038N   26062.58336806 -.00971291  33809-3 -12573-2 0  9993
2 67973  97.2773  72.3610 0000919  98.9880 150.1874 16.07165185  2210
STARLINK-36901          
1 67974U 26038P   26062.58336806 -.00972007  33802-3 -12681-2 0  9993
2 67974  97.2773  72.3601 0000994  92.9722 154.4307 16.07038956  2216
STARLINK-36883          
1 67975U 26038Q   26062.58336806 -.00969813  33921-3 -12177-2 0  9997
2 67975  97.2769  72.3639 0000923  91.1282 164.8920 16.07653452  2217
STARLINK-36880          
1 67976U 26038R   26062.58336806 -.00971071  33847-3 -12474-2 0  9994
2 67976  97.2771  72.3617 0000956  89.0978 161.8022 16.07288058  2217
STARLINK-36904          
1 67977U 26038S   26062.58336806 -.00965529  33591-3 -12218-2 0  9998
2 67977  97.2769  72.3630 0000907  95.2090 159.1008 16.07527320  2212
